NORAD_CAT_ID,OBJECT_NAME,OBJECT_TYPE,EPOCH,MEAN_MOTION,ECCENTRICITY,INCLINATION,RA_OF_ASC_NODE,ARG_OF_PERICENTER,MEAN_ANOMALY,BSTAR,MEAN_MOTION_DOT,MEAN_MOTION_DDOT,TLE_LINE0,TLE_LINE1,TLE_LINE2,SEMIMAJOR_AXIS,PERIOD,APOGEE,PERIGEE,DECAYED
49173.0,STARLINK-3045,PAYLOAD,2022-04-12 22:00:00,14.96686731,0.0003201,69.9995,270.9859,281.2771,261.6637,0.0036719,0.0004216,0.0,0 STARLINK-3045,1 49173U 21082AV  22102.91667824  .00042160  00000-0  36719-2 0  9998,2 49173  69.9995 270.9859 0003201 281.2771 261.6637 14.96686731  3574,6955.279,96.213,579.371,574.918,0.0
49173.0,STARLINK-3045,PAYLOAD,2022-04-13 14:00:03,14.96740487,0.000319,69.9997,269.3092,276.0524,258.0782,-0.0037517,-0.00042799,0.0,0 STARLINK-3045,1 49173U 21082AV  22103.58336806 -.00042799  00000-0 -37517-2 0  9992,2 49173  69.9997 269.3092 0003190 276.0524 258.0782 14.96740487 32877,6955.113,96.209,579.196,574.759,0.0
49173.0,STARLINK-3045,PAYLOAD,2022-04-13 22:00:00,14.967016,0.0003205,69.9994,268.4708,281.8703,247.6965,0.0033266,0.00038179,0.0,0 STARLINK-3045,1 49173U 21082AV  22103.91667824  .00038179  00000-0  33266-2 0  9998,2 49173  69.9994 268.4708 0003205 281.8703 247.6965 14.96701600  3585,6955.233,96.212,579.327,574.869,0.0
49173.0,STARLINK-3045,PAYLOAD,2022-04-14 06:00:00,14.96694906,0.0003131,69.9994,267.6324,276.3901,248.7341,0.0039009,0.00044821,0.0,0 STARLINK-3045,1 49173U 21082AV  22104.25001157  .00044821  00000-0  39009-2 0  9999,2 49173  69.9994 267.6324 0003131 276.3901 248.7341 14.96694906 32972,6955.254,96.212,579.297,574.941,0.0
49173.0,STARLINK-3045,PAYLOAD,2022-04-14 14:00:01,14.96747889,0.0003161,69.9997,266.79400000000004,276.6566,244.0018,-0.003704,-0.00042267,0.0,0 STARLINK-3045,1 49173U 21082AV  22104.58334491 -.00042267  00000-0 -37040-2 0  9992,2 49173  69.9997 266.7940 0003161 276.6566 244.0018 14.96747889  3586,6955.09,96.209,579.153,574.756,0.0
49173.0,STARLINK-3045,PAYLOAD,2022-04-14 22:00:00,14.96714274,0.0003195,69.9994,265.9555,282.1998,234.0292,0.0027348,0.0003135,0.0,0 STARLINK-3045,1 49173U 21082AV  22104.91667824  .00031350  00000-0  27348-2 0  9997,2 49173  69.9994 265.9555 0003195 282.1998 234.0292 14.96714274 33076,6955.194,96.211,579.281,574.837,0.0
49173.0,STARLINK-3045,PAYLOAD,2022-04-15 13:20:38,14.96729415,0.0003185,69.9985,264.3471,277.5077,82.5719,0.00019615,2.155e-05,0.0,0 STARLINK-3045,1 49173U 21082AV  22105.55599693  .00002155  00000-0  19615-3 0  9996,2 49173  69.9985 264.3471 0003185 277.5077  82.5719 14.96729415 33175,6955.147,96.21,579.227,574.797,0.0
49173.0,STARLINK-3045,PAYLOAD,2022-04-15 22:00:00,14.96722294,0.0003306,69.9997,263.4399,281.4375,221.5231,0.00023356,2.583e-05,0.0,0 STARLINK-3045,1 49173U 21082AV  22105.91667824  .00002583  00000-0  23356-3 0  9990,2 49173  69.9997 263.4399 0003306 281.4375 221.5231 14.96722294 33225,6955.169,96.21,579.3330000000002,574.735,0.0
49173.0,STARLINK-3045,PAYLOAD,2022-04-16 14:00:01,14.96724698,0.0003238,70.0002,261.763,275.8435,218.195,-0.0033515,-0.00038252,0.0,0 STARLINK-3045,1 49173U 21082AV  22106.58334491 -.00038252  00000-0 -33515-2 0  9996,2 49173  70.0002 261.7630 0003238 275.8435 218.1950 14.96724698 33323,6955.1619999999975,96.21,579.279,574.775,0.0
49173.0,STARLINK-3045,PAYLOAD,2022-04-16 22:00:01,14.96695282,0.0003314,70.0,260.9244,280.4862,209.1519,0.0019127,0.00021858,0.0,0 STARLINK-3045,1 49173U 21082AV  22106.91668981  .00021858  00000-0  19127-2 0  9992,2 49173  70.0000 260.9244 0003314 280.4862 209.1519 14.96695282  3575,6955.253000000002,96.212,579.423,574.813,0.0
49173.0,STARLINK-3045,PAYLOAD,2022-04-17 06:00:00,14.96674848,0.0003302,70.0002,260.086,274.4635,210.658,0.0055023999999999,0.00063397,0.0,0 STARLINK-3045,1 49173U 21082AV  22107.25001157  .00063397  00000-0  55024-2 0  9996,2 49173  70.0002 260.0860 0003302 274.4635 210.6580 14.96674848 33427,6955.316,96.213,579.4780000000002,574.884,0.0
49173.0,STARLINK-3045,PAYLOAD,2022-04-17 14:00:01,14.96735209,0.0003329,70.0007,259.2477,275.6073,205.0343,-0.0035978,-0.00041052,0.0,0 STARLINK-3045,1 49173U 21082AV  22107.58334491 -.00041052  00000-0 -35978-2 0  9994,2 49173  70.0007 259.2477 0003329 275.6073 205.0343 14.96735209  3593,6955.129,96.209,579.309,574.679,0.0
49173.0,STARLINK-3045,PAYLOAD,2022-04-17 22:00:00,14.96712596,0.0003379,70.0005,258.4092,280.1167,196.079,0.0015215,0.00017365,0.0,0 STARLINK-3045,1 49173U 21082AV  22107.91667824  .00017365  00000-0  15215-2 0  9990,2 49173  70.0005 258.4092 0003379 280.1167 196.0790 14.96712596  3583,6955.199000000001,96.211,579.414,574.714,0.0
49173.0,STARLINK-3045,PAYLOAD,2022-04-18 06:00:00,14.9668943,0.0003372,70.0007,257.5709,274.3057,197.4545,0.0059651,0.00068815,0.0,0 STARLINK-3045,1 49173U 21082AV  22108.25001157  .00068815  00000-0  59651-2 0  9997,2 49173  70.0007 257.5709 0003372 274.3057 197.4545 14.96689430 33571,6955.271,96.212,579.481,574.7909999999998,0.0
49173.0,STARLINK-3045,PAYLOAD,2022-04-18 14:00:01,14.96751673,0.0003369,70.0011,256.7326,276.0917,191.2057,-0.0041236999999999,-0.00047019,0.0,0 STARLINK-3045,1 49173U 21082AV  22108.58334491 -.00047019  00000-0 -41237-2 0  9999,2 49173  70.0011 256.7326 0003369 276.0917 191.2057 14.96751673  3589,6955.078,96.208,579.286,574.6,0.0
49173.0,STARLINK-3045,PAYLOAD,2022-04-18 22:00:00,14.96725807,0.0003317,70.0007,255.8941,280.5894,182.2801,-0.0016667,-0.00019122,0.0,0 STARLINK-3045,1 49173U 21082AV  22108.91667824 -.00019122  00000-0 -16667-2 0  9998,2 49173  70.0007 255.8941 0003317 280.5894 182.2801 14.96725807 33674,6955.158,96.21,579.33,574.716,0.0
49173.0,STARLINK-3045,PAYLOAD,2022-04-19 14:00:01,14.96735047,0.0003262,70.0013,254.2177,277.0561,176.9035,-0.0029916,-0.00034183,0.0,0 STARLINK-3045,1 49173U 21082AV  22109.58334491 -.00034183  00000-0 -29916-2 0  9998,2 49173  70.0013 254.2177 0003262 277.0561 176.9035 14.96735047  3590,6955.13,96.209,579.263,574.726,0.0
49173.0,STARLINK-3045,PAYLOAD,2022-04-19 22:00:00,14.96731633,0.0003201,70.0008,253.3793,281.5233,167.9908,-0.0038706,-0.00044134,0.0,0 STARLINK-3045,1 49173U 21082AV  22109.91667824 -.00044134  00000-0 -38706-2 0  9998,2 49173  70.0008 253.3793 0003201 281.5233 167.9908 14.96731633 33822,6955.14,96.21,579.231,574.779,0.0
49173.0,STARLINK-3045,PAYLOAD,2022-04-20 14:00:01,14.96719815,0.0003142,70.0012,251.7028,277.6491,162.9374,-0.0024197,-0.00027681,0.0,0 STARLINK-3045,1 49173U 21082AV  22110.58334491 -.00027681  00000-0 -24197-2 0  9991,2 49173  70.0012 251.7028 0003142 277.6491 162.9374 14.96719815 33927,6955.177,96.21,579.227,574.856,0.0
49173.0,STARLINK-3045,PAYLOAD,2022-04-20 22:00:00,14.96719199,0.000317,70.0007,250.8644,281.5852,154.5398,-0.00061183,-7.088e-05,0.0,0 STARLINK-3045,1 49173U 21082AV  22110.91667824 -.00007088  00000-0 -61183-3 0  9993,2 49173  70.0007 250.8644 0003170 281.5852 154.5398 14.96719199  3577,6955.179,96.21,579.248,574.839,0.0
49173.0,STARLINK-3045,PAYLOAD,2022-04-21 06:00:00,14.96695683,0.0003143,70.0006,250.0314,276.0799,155.5929,0.0020198,0.00023091,0.0,0 STARLINK-3045,1 49173U 21082AV  22111.25001157  .00023091  00000-0  20198-2 0  9992,2 49173  70.0006 250.0314 0003143 276.0799 155.5929 14.96695683 34027,6955.251,96.212,579.303,574.93,0.0
49173.0,STARLINK-3045,PAYLOAD,2022-04-21 14:00:01,14.96737863,0.0003221,70.001,249.1879,277.1204,150.0998,-0.002432,-0.00027833,0.0,0 STARLINK-3045,1 49173U 21082AV  22111.58334491 -.00027833  00000-0 -24320-2 0  9999,2 49173  70.0010 249.1879 0003221 277.1204 150.0998 14.96737863  3598,6955.121,96.209,579.226,574.746,0.0
49173.0,STARLINK-3045,PAYLOAD,2022-04-21 22:00:00,14.96743264,0.0003331,70.0005,248.3495,280.4191,142.3669,-0.0042705,-0.00048668,0.0,0 STARLINK-3045,1 49173U 21082AV  22111.91667824 -.00048668  00000-0 -42705-2 0  9991,2 49173  70.0005 248.3495 0003331 280.4191 142.3669 14.96743264  3570,6955.104,96.209,579.286,574.6519999999998,0.0
49173.0,STARLINK-3045,PAYLOAD,2022-04-22 14:00:01,14.96740578,0.0003386,70.0007,246.673,276.7409,137.1495,-0.0035036,-0.00039991,0.0,0 STARLINK-3045,1 49173U 21082AV  22112.58334491 -.00039991  00000-0 -35036-2 0  9994,2 49173  70.0007 246.6730 0003386 276.7409 137.1495 14.96740578 34225,6955.111999999999,96.209,579.332,574.622,0.0
49173.0,STARLINK-3045,PAYLOAD,2022-04-23 06:00:02,14.9667282,0.0003338,70.0004,244.9962,273.6511,131.4129,0.0069129,0.00079856,0.0,0 STARLINK-3045,1 49173U 21082AV  22113.25002315  .00079856  00000-0  69129-2 0  9998,2 49173  70.0004 244.9962 0003338 273.6511 131.4129 14.96672820 34323,6955.321999999999,96.213,579.509,574.866,0.0
49173.0,STARLINK-3045,PAYLOAD,2022-04-23 14:00:01,14.96727838,0.000336,70.0005,244.158,277.0431,123.4905,-0.0012526,-0.00014404,0.0,0 STARLINK-3045,1 49173U 21082AV  22113.58334491 -.00014404  00000-0 -12526-2 0  9996,2 49173  70.0005 244.1580 0003360 277.0431 123.4905 14.96727838  3550,6955.151999999999,96.21,579.354,574.68,0.0
49173.0,STARLINK-3045,PAYLOAD,2022-04-23 22:00:00,14.96747706,0.0003313,70.0001,243.3197,280.4279,115.6556,-0.005768,-0.00065551,0.0,0 STARLINK-3045,1 49173U 21082AV  22113.91667824 -.00065551  00000-0 -57680-2 0  9991,2 49173  70.0001 243.3197 0003313 280.4279 115.6556 14.96747706 34428,6955.09,96.209,579.26,574.651,0.0
49173.0,STARLINK-3045,PAYLOAD,2022-04-24 14:00:01,14.96723811,0.0003273999999999,70.0005,241.6432,278.3191,108.8632,-0.0013726,-0.0001576999999999,0.0,0 STARLINK-3045,1 49173U 21082AV  22114.58334491 -.00015770  00000-0 -13726-2 0  9997,2 49173  70.0005 241.6432 0003274 278.3191 108.8632 14.96723811 34521,6955.1640000000025,96.21,579.306,574.752,0.0
49173.0,STARLINK-3045,PAYLOAD,2022-04-25 14:00:01,14.96717964,0.0003191,70.0004,239.1283,279.3991,94.4164,-0.00035469,-4.149e-05,0.0,0 STARLINK-3045,1 49173U 21082AV  22115.58334491 -.00004149  00000-0 -35469-3 0  9995,2 49173  70.0004 239.1283 0003191 279.3991  94.4164 14.96717964 34671,6955.182,96.211,579.2669999999998,574.828,0.0
